{
  "type": "FeatureCollection",
  "features": [
    {
      "type": "Feature",
      "properties": {
        "norad_id": 36691,
        "name": "FENGYUN 1C DEB",
        "group": "fengyun-1c-debris",
        "lat": 36.16197702491236,
        "lon": -24.61948153265153,
        "alt_km": 944.0233193446938,
        "timestamp": "2025-12-07T09:35:10.079156+00:00",
        "meta_object_name": "FENGYUN 1C DEB",
        "meta_object_id": "1999-025DZM",
        "meta_epoch": "2025-12-06T06:06:14.665824",
        "meta_mean_motion": 14.07078836,
        "meta_eccentricity": 0.01290837,
        "meta_inclination": 98.6367,
        "meta_ra_of_asc_node": 340.664,
        "meta_arg_of_pericenter": 253.8833,
        "meta_mean_anomaly": 104.8094,
        "meta_ephemeris_type": 0,
        "meta_classification_type": "U",
        "meta_norad_cat_id": 36691,
        "meta_element_set_no": 999,
        "meta_rev_at_epoch": 59518,
        "meta_bstar": 0.0035890577,
        "meta_mean_motion_dot": 6.435e-05,
        "meta_mean_motion_ddot": 0,
        "tle_line1": "1 36691U 99025DZM 25340.25433641  .00006435  00000+0  35891-2 0  9997",
        "tle_line2": "2 36691  98.6367 340.6640 0129083 253.8833 104.8094 14.07078836595182"
      },
      "geometry": {
        "type": "Point",
        "coordinates": [
          -24.61948153265153,
          36.16197702491236
        ]
      }
    },
    {
      "type": "Feature",
      "properties": {
        "norad_id": 36692,
        "name": "FENGYUN 1C DEB",
        "group": "fengyun-1c-debris",
        "lat": -59.92994566118485,
        "lon": -95.22858949842663,
        "alt_km": 920.7297072627161,
        "timestamp": "2025-12-07T09:35:10.079167+00:00",
        "meta_object_name": "FENGYUN 1C DEB",
        "meta_object_id": "1999-025DZN",
        "meta_epoch": "2025-12-04T12:56:52.897632",
        "meta_mean_motion": 13.93448865,
        "meta_eccentricity": 0.0115856,
        "meta_inclination": 99.9932,
        "meta_ra_of_asc_node": 243.9547,
        "meta_arg_of_pericenter": 34.8482,
        "meta_mean_anomaly": 326.0192,
        "meta_ephemeris_type": 0,
        "meta_classification_type": "U",
        "meta_norad_cat_id": 36692,
        "meta_element_set_no": 999,
        "meta_rev_at_epoch": 59691,
        "meta_bstar": 0.0009556,
        "meta_mean_motion_dot": 1.272e-05,
        "meta_mean_motion_ddot": 0,
        "tle_line1": "1 36692U 99025DZN 25338.53950113  .00001272  00000+0  95560-3 0  9998",
        "tle_line2": "2 36692  99.9932 243.9547 0115856  34.8482 326.0192 13.93448865596912"
      },
      "geometry": {
        "type": "Point",
        "coordinates": [
          -95.22858949842663,
          -59.92994566118485
        ]
      }
    },
    {
      "type": "Feature",
      "properties": {
        "norad_id": 36695,
        "name": "FENGYUN 1C DEB",
        "group": "fengyun-1c-debris",
        "lat": -63.2463209371997,
        "lon": -20.430208319603427,
        "alt_km": 909.1445306454843,
        "timestamp": "2025-12-07T09:35:10.079178+00:00",
        "meta_object_name": "FENGYUN 1C DEB",
        "meta_object_id": "1999-025DZR",
        "meta_epoch": "2025-12-02T05:08:42.495936",
        "meta_mean_motion": 14.43719766,
        "meta_eccentricity": 0.0256767,
        "meta_inclination": 98.2188,
        "meta_ra_of_asc_node": 317.8964,
        "meta_arg_of_pericenter": 162.2314,
        "meta_mean_anomaly": 198.8066,
        "meta_ephemeris_type": 0,
        "meta_classification_type": "U",
        "meta_norad_cat_id": 36695,
        "meta_element_set_no": 999,
        "meta_rev_at_epoch": 89416,
        "meta_bstar": 0.00021067,
        "meta_mean_motion_dot": 1.017e-05,
        "meta_mean_motion_ddot": 0,
        "tle_line1": "1 36695U 99025DZR 25336.21438074  .00001017  00000+0  21067-3 0  9999",
        "tle_line2": "2 36695  98.2188 317.8964 0256767 162.2314 198.8066 14.43719766894161"
      },
      "geometry": {
        "type": "Point",
        "coordinates": [
          -20.430208319603427,
          -63.2463209371997
        ]
      }
    },
    {
      "type": "Feature",
      "properties": {
        "norad_id": 36696,
        "name": "FENGYUN 1C DEB",
        "group": "fengyun-1c-debris",
        "lat": -80.98557634696589,
        "lon": 83.60944430460654,
        "alt_km": 764.8951222097794,
        "timestamp": "2025-12-07T09:35:10.079188+00:00",
        "meta_object_name": "FENGYUN 1C DEB",
        "meta_object_id": "1999-025DZS",
        "meta_epoch": "2025-12-02T18:11:58.683840",
        "meta_mean_motion": 14.38992658,
        "meta_eccentricity": 0.00232796,
        "meta_inclination": 98.9924,
        "meta_ra_of_asc_node": 345.2734,
        "meta_arg_of_pericenter": 359.309,
        "meta_mean_anomaly": 0.806,
        "meta_ephemeris_type": 0,
        "meta_classification_type": "U",
        "meta_norad_cat_id": 36696,
        "meta_element_set_no": 999,
        "meta_rev_at_epoch": 64252,
        "meta_bstar": 0.0025774102,
        "meta_mean_motion_dot": 7.939e-05,
        "meta_mean_motion_ddot": 0,
        "tle_line1": "1 36696U 99025DZS 25336.75831810  .00007939  00000+0  25774-2 0  9991",
        "tle_line2": "2 36696  98.9924 345.2734 0023279 359.3090   0.8060 14.38992658642521"
      },
      "geometry": {
        "type": "Point",
        "coordinates": [
          83.60944430460654,
          -80.98557634696589
        ]
      }
    },
    {
      "type": "Feature",
      "properties": {
        "norad_id": 36699,
        "name": "FENGYUN 1C DEB",
        "group": "fengyun-1c-debris",
        "lat": -50.910270965522336,
        "lon": 145.35710657200661,
        "alt_km": 812.514845480101,
        "timestamp": "2025-12-07T09:35:10.079198+00:00",
        "meta_object_name": "FENGYUN 1C DEB",
        "meta_object_id": "1999-025DZV",
        "meta_epoch": "2025-12-04T19:48:45.331488",
        "meta_mean_motion": 14.24279852,
        "meta_eccentricity": 0.00942928,
        "meta_inclination": 98.5587,
        "meta_ra_of_asc_node": 333.5329,
        "meta_arg_of_pericenter": 153.0533,
        "meta_mean_anomaly": 207.5588,
        "meta_ephemeris_type": 0,
        "meta_classification_type": "U",
        "meta_norad_cat_id": 36699,
        "meta_element_set_no": 999,
        "meta_rev_at_epoch": 73214,
        "meta_bstar": 0.00039707496,
        "meta_mean_motion_dot": 9.18e-06,
        "meta_mean_motion_ddot": 0,
        "tle_line1": "1 36699U 99025DZV 25338.82552467  .00000918  00000+0  39707-3 0  9994",
        "tle_line2": "2 36699  98.5587 333.5329 0094292 153.0533 207.5588 14.24279852732147"
      },
      "geometry": {
        "type": "Point",
        "coordinates": [
          145.35710657200661,
          -50.910270965522336
        ]
      }
    },
    {
      "type": "Feature",
      "properties": {
        "norad_id": 36701,
        "name": "FENGYUN 1C DEB",
        "group": "fengyun-1c-debris",
        "lat": 57.592692006873946,
        "lon": 134.90103519807704,
        "alt_km": 1146.2153690887935,
        "timestamp": "2025-12-07T09:35:10.079208+00:00",
        "meta_object_name": "FENGYUN 1C DEB",
        "meta_object_id": "1999-025DZX",
        "meta_epoch": "2025-12-06T03:12:47.861856",
        "meta_mean_motion": 13.71276063,
        "meta_eccentricity": 0.02606335,
        "meta_inclination": 102.7469,
        "meta_ra_of_asc_node": 292.3354,
        "meta_arg_of_pericenter": 268.5079,
        "meta_mean_anomaly": 88.6189,
        "meta_ephemeris_type": 0,
        "meta_classification_type": "U",
        "meta_norad_cat_id": 36701,
        "meta_element_set_no": 999,
        "meta_rev_at_epoch": 61048,
        "meta_bstar": 0.0039906471,
        "meta_mean_motion_dot": 4.489e-05,
        "meta_mean_motion_ddot": 0,
        "tle_line1": "1 36701U 99025DZX 25340.13388729  .00004489  00000+0  39906-2 0  9990",
        "tle_line2": "2 36701 102.7469 292.3354 0260633 268.5079  88.6189 13.71276063610488"
      },
      "geometry": {
        "type": "Point",
        "coordinates": [
          134.90103519807704,
          57.592692006873946
        ]
      }
    },
    {
      "type": "Feature",
      "properties": {
        "norad_id": 36707,
        "name": "FENGYUN 1C DEB",
        "group": "fengyun-1c-debris",
        "lat": -70.22282981274455,
        "lon": -177.77448469596578,
        "alt_km": 857.1254612575412,
        "timestamp": "2025-12-07T09:35:10.079218+00:00",
        "meta_object_name": "FENGYUN 1C DEB",
        "meta_object_id": "1999-025EAD",
        "meta_epoch": "2025-12-06T20:32:37.753728",
        "meta_mean_motion": 14.17281084,
        "meta_eccentricity": 0.00499791,
        "meta_inclination": 98.7525,
        "meta_ra_of_asc_node": 27.0595,
        "meta_arg_of_pericenter": 138.3095,
        "meta_mean_anomaly": 222.1906,
        "meta_ephemeris_type": 0,
        "meta_classification_type": "U",
        "meta_norad_cat_id": 36707,
        "meta_element_set_no": 999,
        "meta_rev_at_epoch": 63996,
        "meta_bstar": 0.0013920761,
        "meta_mean_motion_dot": 2.804e-05,
        "meta_mean_motion_ddot": 0,
        "tle_line1": "1 36707U 99025EAD 25340.85599252  .00002804  00000+0  13921-2 0  9998",
        "tle_line2": "2 36707  98.7525  27.0595 0049979 138.3095 222.1906 14.17281084639967"
      },
      "geometry": {
        "type": "Point",
        "coordinates": [
          -177.77448469596578,
          -70.22282981274455
        ]
      }
    }
  ]
}